SAUDISAT 1C             
1 27607U 02058C   14299.30993339  .00002262  00000-0  35278-3 0  5560
2 27607  64.5563 192.5666 0063121 336.5505  23.2720 14.74053823636804
SAUDISAT 2              
1 28371U 04025F   14300.46161825  .00000613  00000-0  15547-3 0  5466
2 28371  97.9996 273.7374 0027285  88.3192 272.1130 14.53808582547781
UNISAT 3                
1 28373U 04025H   14299.83997444  .00001008  00000-0  29475-3 0  9547
2 28373  98.2211 249.5792 0068397 259.7082 127.4516 14.44746095544623
SAUDISAT 3              
1 31118U 07012B   14300.44018928  .00000437  00000-0  82723-4 0  1697
2 31118  97.7573 329.9471 0016722 114.9409 354.1120 14.68710066403524
